[{"OBJECT_NAME":"GOES 1 (SMS-C)","OBJECT_ID":"1975-100A","EPOCH":"2026-03-14T16:29:10.721760","MEAN_MOTION":1.00239625,"ECCENTRICITY":0.00052516,"INCLINATION":4.8482,"RA_OF_ASC_NODE":278.6286,"ARG_OF_PERICENTER":1.351,"MEAN_ANOMALY":17.7194,"EPHEMERIS_TYPE":0,"CLASSIFICATION_TYPE":"U","NORAD_CAT_ID":8366,"ELEMENT_SET_NO":999,"REV_AT_EPOCH":18412,"BSTAR":0,"MEAN_MOTION_DOT":1.6e-7,"MEAN_MOTION_DDOT":0},{"OBJECT_NAME":"GOES 2","OBJECT_ID":"1977-048A","EPOCH":"2026-03-14T19:17:28.797792","MEAN_MOTION":0.99393322,"ECCENTRICITY":0.00139283,"INCLINATION":6.6444,"RA_OF_ASC_NODE":294.1408,"ARG_OF_PERICENTER":48.8141,"MEAN_ANOMALY":201.6146,"EPHEMERIS_TYPE":0,"CLASSIFICATION_TYPE":"U","NORAD_CAT_ID":10061,"ELEMENT_SET_NO":999,"REV_AT_EPOCH":4533,"BSTAR":0,"MEAN_MOTION_DOT":-6.0e-8,"MEAN_MOTION_DDOT":0},{"OBJECT_NAME":"GOES 3","OBJECT_ID":"1978-062A","EPOCH":"2026-03-14T13:40:38.533152","MEAN_MOTION":0.99362842,"ECCENTRICITY":0.00024477,"INCLINATION":7.1167,"RA_OF_ASC_NODE":299.9787,"ARG_OF_PERICENTER":358.8997,"MEAN_ANOMALY":203.7067,"EPHEMERIS_TYPE":0,"CLASSIFICATION_TYPE":"U","NORAD_CAT_ID":10953,"ELEMENT_SET_NO":999,"REV_AT_EPOCH":12759,"BSTAR":0,"MEAN_MOTION_DOT":-2.95e-6,"MEAN_MOTION_DDOT":0},{"OBJECT_NAME":"GOES 4","OBJECT_ID":"1980-074A","EPOCH":"2026-03-14T13:12:45.104256","MEAN_MOTION":0.99227917,"ECCENTRICITY":0.00323181,"INCLINATION":8.1902,"RA_OF_ASC_NODE":303.6614,"ARG_OF_PERICENTER":103.3413,"MEAN_ANOMALY":232.8625,"EPHEMERIS_TYPE":0,"CLASSIFICATION_TYPE":"U","NORAD_CAT_ID":11964,"ELEMENT_SET_NO":999,"REV_AT_EPOCH":12649,"BSTAR":0,"MEAN_MOTION_DOT":-4.8e-7,"MEAN_MOTION_DDOT":0},{"OBJECT_NAME":"GOES 5","OBJECT_ID":"1981-049A","EPOCH":"2026-03-14T09:04:06.136320","MEAN_MOTION":1.00209622,"ECCENTRICITY":0.00045741,"INCLINATION":9.5282,"RA_OF_ASC_NODE":316.2812,"ARG_OF_PERICENTER":339.5527,"MEAN_ANOMALY":281.3209,"EPHEMERIS_TYPE":0,"CLASSIFICATION_TYPE":"U","NORAD_CAT_ID":12472,"ELEMENT_SET_NO":999,"REV_AT_EPOCH":12189,"BSTAR":0,"MEAN_MOTION_DOT":-1.76e-6,"MEAN_MOTION_DDOT":0},{"OBJECT_NAME":"GOES 6","OBJECT_ID":"1983-041A","EPOCH":"2026-03-14T16:32:17.922912","MEAN_MOTION":1.00218479,"ECCENTRICITY":0.00021844,"INCLINATION":10.3413,"RA_OF_ASC_NODE":321.8369,"ARG_OF_PERICENTER":310.8842,"MEAN_ANOMALY":36.1524,"EPHEMERIS_TYPE":0,"CLASSIFICATION_TYPE":"U","NORAD_CAT_ID":14050,"ELEMENT_SET_NO":999,"REV_AT_EPOCH":21506,"BSTAR":0,"MEAN_MOTION_DOT":-5.1e-7,"MEAN_MOTION_DDOT":0},{"OBJECT_NAME":"GOES 7","OBJECT_ID":"1987-022A","EPOCH":"2026-03-13T07:51:33.482304","MEAN_MOTION":0.9989808,"ECCENTRICITY":0.00040914,"INCLINATION":13.0128,"RA_OF_ASC_NODE":338.3128,"ARG_OF_PERICENTER":16.487,"MEAN_ANOMALY":148.7526,"EPHEMERIS_TYPE":0,"CLASSIFICATION_TYPE":"U","NORAD_CAT_ID":17561,"ELEMENT_SET_NO":999,"REV_AT_EPOCH":12600,"BSTAR":0,"MEAN_MOTION_DOT":1.08e-6,"MEAN_MOTION_DDOT":0},{"OBJECT_NAME":"GOES 8","OBJECT_ID":"1994-022A","EPOCH":"2026-03-14T17:37:26.676192","MEAN_MOTION":0.98905319,"ECCENTRICITY":0.00053644,"INCLINATION":14.3498,"RA_OF_ASC_NODE":14.3931,"ARG_OF_PERICENTER":16.8667,"MEAN_ANOMALY":162.6449,"EPHEMERIS_TYPE":0,"CLASSIFICATION_TYPE":"U","NORAD_CAT_ID":23051,"ELEMENT_SET_NO":999,"REV_AT_EPOCH":12319,"BSTAR":0,"MEAN_MOTION_DOT":-1.84e-6,"MEAN_MOTION_DDOT":0},{"OBJECT_NAME":"GOES 9","OBJECT_ID":"1995-025A","EPOCH":"2026-03-14T11:17:41.137728","MEAN_MOTION":0.98798943,"ECCENTRICITY":0.0003243,"INCLINATION":13.8792,"RA_OF_ASC_NODE":15.2412,"ARG_OF_PERICENTER":209.1903,"MEAN_ANOMALY":343.4937,"EPHEMERIS_TYPE":0,"CLASSIFICATION_TYPE":"U","NORAD_CAT_ID":23581,"ELEMENT_SET_NO":999,"REV_AT_EPOCH":11182,"BSTAR":0,"MEAN_MOTION_DOT":2.0e-7,"MEAN_MOTION_DDOT":0},{"OBJECT_NAME":"GOES 10","OBJECT_ID":"1997-019A","EPOCH":"2026-03-14T10:28:50.097216","MEAN_MOTION":0.99122438,"ECCENTRICITY":0.00306381,"INCLINATION":13.0154,"RA_OF_ASC_NODE":21.7714,"ARG_OF_PERICENTER":238.7904,"MEAN_ANOMALY":123.1937,"EPHEMERIS_TYPE":0,"CLASSIFICATION_TYPE":"U","NORAD_CAT_ID":24786,"ELEMENT_SET_NO":999,"REV_AT_EPOCH":10513,"BSTAR":0,"MEAN_MOTION_DOT":7.3e-7,"MEAN_MOTION_DDOT":0},{"OBJECT_NAME":"GOES 11","OBJECT_ID":"2000-022A","EPOCH":"2026-03-14T11:21:33.266880","MEAN_MOTION":0.99040167,"ECCENTRICITY":0.00057209,"INCLINATION":11.6022,"RA_OF_ASC_NODE":47.3458,"ARG_OF_PERICENTER":258.1493,"MEAN_ANOMALY":276.3533,"EPHEMERIS_TYPE":0,"CLASSIFICATION_TYPE":"U","NORAD_CAT_ID":26352,"ELEMENT_SET_NO":999,"REV_AT_EPOCH":5153,"BSTAR":0,"MEAN_MOTION_DOT":6.2e-7,"MEAN_MOTION_DDOT":0},{"OBJECT_NAME":"GOES 12","OBJECT_ID":"2001-031A","EPOCH":"2026-03-14T21:42:44.625888","MEAN_MOTION":0.99134722,"ECCENTRICITY":0.00087898,"INCLINATION":12.0147,"RA_OF_ASC_NODE":38.0549,"ARG_OF_PERICENTER":298.5175,"MEAN_ANOMALY":58.9073,"EPHEMERIS_TYPE":0,"CLASSIFICATION_TYPE":"U","NORAD_CAT_ID":26871,"ELEMENT_SET_NO":999,"REV_AT_EPOCH":8982,"BSTAR":0,"MEAN_MOTION_DOT":1.5e-7,"MEAN_MOTION_DDOT":0},{"OBJECT_NAME":"EWS-G1 (GOES 13)","OBJECT_ID":"2006-018A","EPOCH":"2026-03-14T19:41:33.746208","MEAN_MOTION":0.98788679,"ECCENTRICITY":0.00619091,"INCLINATION":4.2864,"RA_OF_ASC_NODE":77.5669,"ARG_OF_PERICENTER":273.8148,"MEAN_ANOMALY":309.5893,"EPHEMERIS_TYPE":0,"CLASSIFICATION_TYPE":"U","NORAD_CAT_ID":29155,"ELEMENT_SET_NO":999,"REV_AT_EPOCH":4231,"BSTAR":0,"MEAN_MOTION_DOT":-1.04e-6,"MEAN_MOTION_DDOT":0},{"OBJECT_NAME":"GOES 14","OBJECT_ID":"2009-033A","EPOCH":"2026-03-14T17:59:47.033952","MEAN_MOTION":1.00103496,"ECCENTRICITY":0.00016794,"INCLINATION":1.4444,"RA_OF_ASC_NODE":84.2599,"ARG_OF_PERICENTER":274.2567,"MEAN_ANOMALY":279.305,"EPHEMERIS_TYPE":0,"CLASSIFICATION_TYPE":"U","NORAD_CAT_ID":35491,"ELEMENT_SET_NO":999,"REV_AT_EPOCH":564,"BSTAR":0,"MEAN_MOTION_DOT":1.09e-6,"MEAN_MOTION_DDOT":0},{"OBJECT_NAME":"EWS-G2 (GOES 15)","OBJECT_ID":"2010-008A","EPOCH":"2026-03-14T22:30:10.076832","MEAN_MOTION":1.00270266,"ECCENTRICITY":0.00024959,"INCLINATION":1.0327,"RA_OF_ASC_NODE":84.9029,"ARG_OF_PERICENTER":17.6924,"MEAN_ANOMALY":110.8883,"EPHEMERIS_TYPE":0,"CLASSIFICATION_TYPE":"U","NORAD_CAT_ID":36411,"ELEMENT_SET_NO":999,"REV_AT_EPOCH":5869,"BSTAR":0,"MEAN_MOTION_DOT":2.1e-7,"MEAN_MOTION_DDOT":0},{"OBJECT_NAME":"GOES 16","OBJECT_ID":"2016-071A","EPOCH":"2026-03-14T21:42:14.673600","MEAN_MOTION":1.00272325,"ECCENTRICITY":0.00021751,"INCLINATION":0.1245,"RA_OF_ASC_NODE":86.9024,"ARG_OF_PERICENTER":229.7377,"MEAN_ANOMALY":76.7393,"EPHEMERIS_TYPE":0,"CLASSIFICATION_TYPE":"U","NORAD_CAT_ID":41866,"ELEMENT_SET_NO":999,"REV_AT_EPOCH":3415,"BSTAR":0,"MEAN_MOTION_DOT":-9.2e-7,"MEAN_MOTION_DDOT":0},{"OBJECT_NAME":"GOES 17","OBJECT_ID":"2018-022A","EPOCH":"2026-03-14T21:46:29.266752","MEAN_MOTION":1.00272409,"ECCENTRICITY":0.00016248,"INCLINATION":0.6936,"RA_OF_ASC_NODE":87.3133,"ARG_OF_PERICENTER":234.3614,"MEAN_ANOMALY":87.9513,"EPHEMERIS_TYPE":0,"CLASSIFICATION_TYPE":"U","NORAD_CAT_ID":43226,"ELEMENT_SET_NO":999,"REV_AT_EPOCH":2947,"BSTAR":0,"MEAN_MOTION_DOT":-1.83e-6,"MEAN_MOTION_DDOT":0}]
